{
  "norad_id": 61728,
  "name": "STARLINK-32475",
  "history": [
    {
      "epoch": "2026-03-28T22:20:59.427168Z",
      "apogee_km": 476.05027733261704,
      "perigee_km": 474.4448034701818,
      "latitude_deg": 1.2949395698445675e-05,
      "longitude_deg": -149.70821484080605,
      "height_km": 476.1132513508877,
      "semi_major_axis_km": 6853.384540401399,
      "eccentricity": 0.00011713,
      "inclination_deg": 53.1617,
      "raan_deg": 11.884,
      "arg_perigee_deg": 87.667,
      "mean_anomaly_deg": 272.4465,
      "mean_motion_rev_day": 15.30189125
    },
    {
      "epoch": "2026-03-29T01:29:05.575776Z",
      "apogee_km": 475.87500257416923,
      "perigee_km": 474.5468237485993,
      "latitude_deg": -5.129516830308914e-05,
      "longitude_deg": 162.53376653208022,
      "height_km": 476.0760520210959,
      "semi_major_axis_km": 6853.347913161384,
      "eccentricity": 9.69e-05,
      "inclination_deg": 53.1621,
      "raan_deg": 11.2804,
      "arg_perigee_deg": 87.1017,
      "mean_anomaly_deg": 273.0094,
      "mean_motion_rev_day": 15.30201392
    },
    {
      "epoch": "2026-03-30T00:59:54.885408Z",
      "apogee_km": 476.0564727571318,
      "perigee_km": 474.4775855368962,
      "latitude_deg": 5.5918759292541434e-05,
      "longitude_deg": 164.30781690182468,
      "height_km": 475.9877331452703,
      "semi_major_axis_km": 6853.404029147014,
      "eccentricity": 0.00011519,
      "inclination_deg": 53.1626,
      "raan_deg": 6.7255,
      "arg_perigee_deg": 76.9811,
      "mean_anomaly_deg": 283.1319,
      "mean_motion_rev_day": 15.30182598
    },
    {
      "epoch": "2026-03-30T11:58:16.807296Z",
      "apogee_km": 476.10766838227573,
      "perigee_km": 474.38870231008605,
      "latitude_deg": 2.6086599634883876e-08,
      "longitude_deg": -2.857900487822375,
      "height_km": 476.45477424667905,
      "semi_major_axis_km": 6853.38518534618,
      "eccentricity": 0.00012541,
      "inclination_deg": 53.1632,
      "raan_deg": 4.6018,
      "arg_perigee_deg": 111.0024,
      "mean_anomaly_deg": 249.1111,
      "mean_motion_rev_day": 15.30188909
    },
    {
      "epoch": "2026-03-31T11:29:06.511776Z",
      "apogee_km": 476.3069611811079,
      "perigee_km": 474.28602071329715,
      "latitude_deg": -2.5031344735378232e-05,
      "longitude_deg": -1.0776976351470113,
      "height_km": 475.94305513050875,
      "semi_major_axis_km": 6853.433490947202,
      "eccentricity": 0.00014744,
      "inclination_deg": 53.1627,
      "raan_deg": 0.0548,
      "arg_perigee_deg": 75.5832,
      "mean_anomaly_deg": 284.5332,
      "mean_motion_rev_day": 15.30172731
    },
    {
      "epoch": "2026-04-01T10:59:52.291968Z",
      "apogee_km": 476.1217365567927,
      "perigee_km": 474.3234150041071,
      "latitude_deg": 2.8678572288995316e-05,
      "longitude_deg": 0.7121599110384078,
      "height_km": 476.4360151990151,
      "semi_major_axis_km": 6853.35957578045,
      "eccentricity": 0.0001312,
      "inclination_deg": 53.1623,
      "raan_deg": 355.501,
      "arg_perigee_deg": 110.5122,
      "mean_anomaly_deg": 249.602,
      "mean_motion_rev_day": 15.30197486
    },
    {
      "epoch": "2026-04-02T16:46:53.126400Z",
      "apogee_km": 475.98909650447877,
      "perigee_km": 474.44709160831644,
      "latitude_deg": 1.919590748549198e-05,
      "longitude_deg": -93.02909035248844,
      "height_km": 476.3479386489353,
      "semi_major_axis_km": 6853.355094056397,
      "eccentricity": 0.0001125,
      "inclination_deg": 53.1608,
      "raan_deg": 349.7364,
      "arg_perigee_deg": 107.4672,
      "mean_anomaly_deg": 252.6452,
      "mean_motion_rev_day": 15.30198987
    }
  ]
}